{"type": "FeatureCollection", "features": [ {"type": "Feature", "properties": {"norad_id": 31444, "name": "FENGYUN 1C DEB", "group": "fengyun-1c-debris", "lat": 55.999362377933025, "lon": 115.919552590343, "alt_km": 619.4871603166075, "timestamp": "2025-12-06T22:38:43.010637+00:00", "meta": {"OBJECT_NAME": "FENGYUN 1C DEB", "OBJECT_ID": "1999-025BUG", "EPOCH": "2025-12-06T13:55:25.275360", "MEAN_MOTION": 14.69744679, "ECCENTRICITY": 0.00625015, "INCLINATION": 98.928, "RA_OF_ASC_NODE": 282.0454, "ARG_OF_PERICENTER": 91.0061, "MEAN_ANOMALY": 269.8304, "EPHEMERIS_TYPE": 0, "CLASSIFICATION_TYPE": "U", "NORAD_CAT_ID": 31444, "ELEMENT_SET_NO": 999, "REV_AT_EPOCH": 97398, "BSTAR": 0.0026755862, "MEAN_MOTION_DOT": 0.00016413, "MEAN_MOTION_DDOT": 0}, "tle": {"line1": "1 31444U 99025BUG 25340.58015365  .00016413  00000+0  26756-2 0  9990", "line2": "2 31444  98.9280 282.0454 0062501  91.0061 269.8304 14.69744679973985"}}, "geometry": {"type": "Point", "coordinates": [115.919552590343, 55.999362377933025]}}, {"type": "Feature", "properties": {"norad_id": 31447, "name": "FENGYUN 1C DEB", "group": "fengyun-1c-debris", "lat": 36.3850971497693, "lon": 15.358665427493527, "alt_km": 658.2326748598252, "timestamp": "2025-12-06T22:38:43.010648+00:00", "meta": {"OBJECT_NAME": "FENGYUN 1C DEB", "OBJECT_ID": "1999-025BUK", "EPOCH": "2025-11-29T08:21:43.391232", "MEAN_MOTION": 14.24014054, "ECCENTRICITY": 0.02308258, "INCLINATION": 98.9936, "RA_OF_ASC_NODE": 14.2854, "ARG_OF_PERICENTER": 33.7171, "MEAN_ANOMALY": 327.8449, "EPHEMERIS_TYPE": 0, "CLASSIFICATION_TYPE": "U", "NORAD_CAT_ID": 31447, "ELEMENT_SET_NO": 999, "REV_AT_EPOCH": 64661, "BSTAR": 0.00017749079, "MEAN_MOTION_DOT": 4.86e-06, "MEAN_MOTION_DDOT": 0}, "tle": {"line1": "1 31447U 99025BUK 25333.34841888  .00000486  00000+0  17749-3 0  9992", "line2": "2 31447  98.9936  14.2854 0230825  33.7171 327.8449 14.24014054646616"}}, "geometry": {"type": "Point", "coordinates": [15.358665427493527, 36.3850971497693]}}, {"type": "Feature", "properties": {"norad_id": 31448, "name": "FENGYUN 1C DEB", "group": "fengyun-1c-debris", "lat": -26.670003855107453, "lon": -3.3049072730444737, "alt_km": 820.244565806579, "timestamp": "2025-12-06T22:38:43.010658+00:00", "meta": {"OBJECT_NAME": "FENGYUN 1C DEB", "OBJECT_ID": "1999-025BUL", "EPOCH": "2025-12-02T19:32:21.678720", "MEAN_MOTION": 14.27758281, "ECCENTRICITY": 0.00583055, "INCLINATION": 98.4997, "RA_OF_ASC_NODE": 348.3701, "ARG_OF_PERICENTER": 233.3288, "MEAN_ANOMALY": 126.2527, "EPHEMERIS_TYPE": 0, "CLASSIFICATION_TYPE": "U", "NORAD_CAT_ID": 31448, "ELEMENT_SET_NO": 999, "REV_AT_EPOCH": 64162, "BSTAR": 0.00092327897, "MEAN_MOTION_DOT": 2.279e-05, "MEAN_MOTION_DDOT": 0}, "tle": {"line1": "1 31448U 99025BUL 25336.81413980  .00002279  00000+0  92328-3 0  9994", "line2": "2 31448  98.4997 348.3701 0058305 233.3288 126.2527 14.27758281641623"}}, "geometry": {"type": "Point", "coordinates": [-3.3049072730444737, -26.670003855107453]}}, {"type": "Feature", "properties": {"norad_id": 31449, "name": "FENGYUN 1C DEB", "group": "fengyun-1c-debris", "lat": -11.401679117111437, "lon": -142.2188476596017, "alt_km": 790.5478016828165, "timestamp": "2025-12-06T22:38:43.010667+00:00", "meta": {"OBJECT_NAME": "FENGYUN 1C DEB", "OBJECT_ID": "1999-025BUM", "EPOCH": "2025-12-06T10:00:56.185344", "MEAN_MOTION": 14.33696003, "ECCENTRICITY": 0.01440406, "INCLINATION": 98.5557, "RA_OF_ASC_NODE": 39.0004, "ARG_OF_PERICENTER": 287.6033, "MEAN_ANOMALY": 70.9463, "EPHEMERIS_TYPE": 0, "CLASSIFICATION_TYPE": "U", "NORAD_CAT_ID": 31449, "ELEMENT_SET_NO": 999, "REV_AT_EPOCH": 97546, "BSTAR": 0.00042021366, "MEAN_MOTION_DOT": 1.261e-05, "MEAN_MOTION_DDOT": 0}, "tle": {"line1": "1 31449U 99025BUM 25340.41731696  .00001261  00000+0  42021-3 0  9998", "line2": "2 31449  98.5557  39.0004 0144040 287.6033  70.9463 14.33696003975465"}}, "geometry": {"type": "Point", "coordinates": [-142.2188476596017, -11.401679117111437]}}, {"type": "Feature", "properties": {"norad_id": 31451, "name": "FENGYUN 1C DEB", "group": "fengyun-1c-debris", "lat": 22.536908289317537, "lon": 19.462220686326454, "alt_km": 866.8058846825425, "timestamp": "2025-12-06T22:38:43.010678+00:00", "meta": {"OBJECT_NAME": "FENGYUN 1C DEB", "OBJECT_ID": "1999-025BUP", "EPOCH": "2025-12-06T02:17:35.089728", "MEAN_MOTION": 14.13608845, "ECCENTRICITY": 0.00309115, "INCLINATION": 98.7646, "RA_OF_ASC_NODE": 22.3018, "ARG_OF_PERICENTER": 230.686, "MEAN_ANOMALY": 158.987, "EPHEMERIS_TYPE": 0, "CLASSIFICATION_TYPE": "U", "NORAD_CAT_ID": 31451, "ELEMENT_SET_NO": 999, "REV_AT_EPOCH": 95916, "BSTAR": 0.00057297794, "MEAN_MOTION_DOT": 1.042e-05, "MEAN_MOTION_DDOT": 0}, "tle": {"line1": "1 31451U 99025BUP 25340.09554502  .00001042  00000+0  57298-3 0  9993", "line2": "2 31451  98.7646  22.3018 0030911 230.6860 158.9870 14.13608845959169"}}, "geometry": {"type": "Point", "coordinates": [19.462220686326454, 22.536908289317537]}}, {"type": "Feature", "properties": {"norad_id": 31452, "name": "FENGYUN 1C DEB", "group": "fengyun-1c-debris", "lat": -66.84887720933413, "lon": 127.18034347256346, "alt_km": 856.0265437714152, "timestamp": "2025-12-06T22:38:43.010687+00:00", "meta": {"OBJECT_NAME": "FENGYUN 1C DEB", "OBJECT_ID": "1999-025BUQ", "EPOCH": "2025-12-02T05:28:59.848608", "MEAN_MOTION": 14.15144251, "ECCENTRICITY": 0.004031, "INCLINATION": 98.658, "RA_OF_ASC_NODE": 323.48, "ARG_OF_PERICENTER": 157.7123, "MEAN_ANOMALY": 202.5814, "EPHEMERIS_TYPE": 0, "CLASSIFICATION_TYPE": "U", "NORAD_CAT_ID": 31452, "ELEMENT_SET_NO": 999, "REV_AT_EPOCH": 96057, "BSTAR": 0.00046116, "MEAN_MOTION_DOT": 8.6e-06, "MEAN_MOTION_DDOT": 0}, "tle": {"line1": "1 31452U 99025BUQ 25336.22847047  .00000860  00000+0  46116-3 0  9997", "line2": "2 31452  98.6580 323.4800 0040310 157.7123 202.5814 14.15144251960574"}}, "geometry": {"type": "Point", "coordinates": [127.18034347256346, -66.84887720933413]}}, {"type": "Feature", "properties": {"norad_id": 31455, "name": "FENGYUN 1C DEB", "group": "fengyun-1c-debris", "lat": -56.589130149776096, "lon": -17.351812929672555, "alt_km": 950.4603165433364, "timestamp": "2025-12-06T22:38:43.010698+00:00", "meta": {"OBJECT_NAME": "FENGYUN 1C DEB", "OBJECT_ID": "1999-025BUT", "EPOCH": "2025-12-01T05:06:27.684288", "MEAN_MOTION": 14.11407074, "ECCENTRICITY": 0.0218887, "INCLINATION": 98.5737, "RA_OF_ASC_NODE": 323.9486, "ARG_OF_PERICENTER": 84.0104, "MEAN_ANOMALY": 278.5966, "EPHEMERIS_TYPE": 0, "CLASSIFICATION_TYPE": "U", "NORAD_CAT_ID": 31455, "ELEMENT_SET_NO": 999, "REV_AT_EPOCH": 95941, "BSTAR": 0.00026567, "MEAN_MOTION_DOT": 5.62e-06, "MEAN_MOTION_DDOT": 0}, "tle": {"line1": "1 31455U 99025BUT 25335.21282042  .00000562  00000+0  26567-3 0  9993", "line2": "2 31455  98.5737 323.9486 0218887  84.0104 278.5966 14.11407074959415"}}, "geometry": {"type": "Point", "coordinates": [-17.351812929672555, -56.589130149776096]}}, {"type": "Feature", "properties": {"norad_id": 31456, "name": "FENGYUN 1C DEB", "group": "fengyun-1c-debris", "lat": 2.0579127405426867, "lon": 82.94668814416067, "alt_km": 711.5969916331769, "timestamp": "2025-12-06T22:38:43.010708+00:00", "meta": {"OBJECT_NAME": "FENGYUN 1C DEB", "OBJECT_ID": "1999-025BUU", "EPOCH": "2025-12-06T02:39:24.925824", "MEAN_MOTION": 14.42343654, "ECCENTRICITY": 0.00676762, "INCLINATION": 98.5779, "RA_OF_ASC_NODE": 82.4202, "ARG_OF_PERICENTER": 334.5783, "MEAN_ANOMALY": 25.2082, "EPHEMERIS_TYPE": 0, "CLASSIFICATION_TYPE": "U", "NORAD_CAT_ID": 31456, "ELEMENT_SET_NO": 999, "REV_AT_EPOCH": 97371, "BSTAR": 0.0014083504, "MEAN_MOTION_DOT": 4.738e-05, "MEAN_MOTION_DDOT": 0}, "tle": {"line1": "1 31456U 99025BUU 25340.11070516  .00004738  00000+0  14084-2 0  9999", "line2": "2 31456  98.5779  82.4202 0067676 334.5783  25.2082 14.42343654973711"}}, "geometry": {"type": "Point", "coordinates": [82.94668814416067, 2.0579127405426867]}}, {"type": "Feature", "properties": {"norad_id": 31459, "name": "FENGYUN 1C DEB", "group": "fengyun-1c-debris", "lat": -81.75792842804258, "lon": -27.686279153926385, "alt_km": 786.9517841826382, "timestamp": "2025-12-06T22:38:43.010718+00:00", "meta": {"OBJECT_NAME": "FENGYUN 1C DEB", "OBJECT_ID": "1999-025BUX", "EPOCH": "2025-12-03T23:33:06.597504", "MEAN_MOTION": 14.43947822, "ECCENTRICITY": 0.00935426, "INCLINATION": 98.1742, "RA_OF_ASC_NODE": 246.583, "ARG_OF_PERICENTER": 158.5595, "MEAN_ANOMALY": 201.9555, "EPHEMERIS_TYPE": 0, "CLASSIFICATION_TYPE": "U", "NORAD_CAT_ID": 31459, "ELEMENT_SET_NO": 999, "REV_AT_EPOCH": 64431, "BSTAR": 0.0027458624, "MEAN_MOTION_DOT": 9.856e-05, "MEAN_MOTION_DDOT": 0}, "tle": {"line1": "1 31459U 99025BUX 25337.98132636  .00009856  00000+0  27459-2 0  9991", "line2": "2 31459  98.1742 246.5830 0093542 158.5595 201.9555 14.43947822644313"}}, "geometry": {"type": "Point", "coordinates": [-27.686279153926385, -81.75792842804258]}}, {"type": "Feature", "properties": {"norad_id": 31462, "name": "FENGYUN 1C DEB", "group": "fengyun-1c-debris", "lat": 16.994429048451234, "lon": -3.164523943294817, "alt_km": 870.5254864599756, "timestamp": "2025-12-06T22:38:43.010728+00:00", "meta": {"OBJECT_NAME": "FENGYUN 1C DEB", "OBJECT_ID": "1999-025BVA", "EPOCH": "2025-12-06T00:36:30.839616", "MEAN_MOTION": 14.12997652, "ECCENTRICITY": 0.00317529, "INCLINATION": 98.6901, "RA_OF_ASC_NODE": 358.6234, "ARG_OF_PERICENTER": 224.0133, "MEAN_ANOMALY": 165.0837, "EPHEMERIS_TYPE": 0, "CLASSIFICATION_TYPE": "U", "NORAD_CAT_ID": 31462, "ELEMENT_SET_NO": 999, "REV_AT_EPOCH": 95761, "BSTAR": 0.00053008886, "MEAN_MOTION_DOT": 9.5e-06, "MEAN_MOTION_DDOT": 0}, "tle": {"line1": "1 31462U 99025BVA 25340.02535694  .00000950  00000+0  53009-3 0  9992", "line2": "2 31462  98.6901 358.6234 0031752 224.0133 165.0837 14.12997652957619"}}, "geometry": {"type": "Point", "coordinates": [-3.164523943294817, 16.994429048451234]}}]}